ONEWEB-0611             
1 54674U 22166AJ  25323.27610937  .00000031  00000+0  44327-4 0  9990
2 54674  87.9186 285.8549 0002105  81.4699 278.6674 13.21824603143719
ONEWEB-0612             
1 54675U 22166AK  25323.13787473  .00000032  00000+0  46880-4 0  9993
2 54675  87.9187 285.8613 0001769  86.0417 274.0919 13.21828300143683
ONEWEB-0615             
1 54676U 22166AL  25323.26952039 -.00000013  00000+0 -63525-4 0  9996
2 54676  87.9188 285.8618 0001853  83.8350 276.2995 13.21823909143717
ONEWEB-0655             
1 54677U 22166AM  25322.94204306 -.00000058  00000+0 -17154-3 0  9993
2 54677  87.9186 285.9318 0001949  91.9271 268.2086 13.21822308143660
ONEWEB-0659             
1 54678U 22166AN  25323.26128823  .00000097  00000+0  20374-3 0  9998
2 54678  87.9188 285.8680 0001906  80.4854 279.6495 13.21828423143795
ONEWEB-0685             
1 54679U 22166AP  25323.18621640  .00000036  00000+0  54692-4 0  9999
2 54679  87.9185 285.8791 0001676  89.7268 270.4058 13.21833500143674
ONEWEB-0712             
1 54680U 22166AQ  25323.23240393  .00000129  00000+0  30290-3 0  9999
2 54680  87.9022 270.5817 0002249  96.6135 263.5252 13.16593051144435
ONEWEB-0714             
1 54681U 22166AR  25323.26787449 -.00000021  00000+0 -83290-4 0  9993
2 54681  87.9189 285.8567 0001821  89.5830 270.5513 13.21823306143802
ONEWEB-0532             
1 55140U 23004A   25323.14575995  .00000052  00000+0  10190-3 0  9994
2 55140  87.9139  47.6250 0001337  98.9898 261.1385 13.17647034139929
ONEWEB-0533             
1 55141U 23004B   25323.27157249  .00000367  00000+0  98582-3 0  9997
2 55141  87.8972  32.3661 0001778 108.1915 251.9407 13.12441262140524
ONEWEB-0541             
1 55142U 23004C   25323.28988010  .00000053  00000+0  11400-3 0  9993
2 55142  87.8868  62.8454 0001579  98.2664 261.8643 13.11414540138433
ONEWEB-0543             
1 55143U 23004D   25323.13765418  .00000076  00000+0  15939-3 0  9999
2 55143  87.9190  17.2196 0002058 102.7323 257.4039 13.18688581142010
ONEWEB-0544             
1 55144U 23004E   25323.20695310 -.00000005  00000+0 -45416-4 0  9999
2 55144  87.9192  17.1952 0002021  94.7611 265.3752 13.18689844142026
ONEWEB-0560             
1 55145U 23004F   25323.20033377  .00000074  00000+0  15616-3 0  9991
2 55145  87.9200  17.1822 0002106  95.6105 264.5268 13.18688760142035
ONEWEB-0565             
1 55146U 23004G   25323.19373536 -.00000209  00000+0 -56342-3 0  9997
2 55146  87.9192  17.2322 0001904  82.2540 277.8808 13.18685958142024
ONEWEB-0567             
1 55147U 23004H   25323.18713833 -.00000136  00000+0 -37878-3 0  9997
2 55147  87.9199  17.1983 0002035  87.8270 272.3095 13.18685776142027
ONEWEB-0569             
1 55148U 23004J   25323.13885232 -.00000275  00000+0 -78810-3 0  9991
2 55148  87.9011   1.9565 0002628  83.2950 276.8479 13.13468862142600
