[{"OBJECT_NAME":"ONEWEB-0611","OBJECT_ID":"2022-166AJ","EPOCH":"2025-11-19T06:37:35.849568","MEAN_MOTION":13.21824603,"ECCENTRICITY":0.00021059,"INCLINATION":87.9186,"RA_OF_ASC_NODE":285.8549,"ARG_OF_PERICENTER":81.4699,"MEAN_ANOMALY":278.6674,"EPHEMERIS_TYPE":0,"CLASSIFICATION_TYPE":"U","NORAD_CAT_ID":54674,"ELEMENT_SET_NO":999,"REV_AT_EPOCH":14371,"BSTAR":4.4326827e-5,"MEAN_MOTION_DOT":3.1e-7,"MEAN_MOTION_DDOT":0},{"OBJECT_NAME":"ONEWEB-0612","OBJECT_ID":"2022-166AK","EPOCH":"2025-11-19T03:18:32.376672","MEAN_MOTION":13.218283,"ECCENTRICITY":0.00017694,"INCLINATION":87.9187,"RA_OF_ASC_NODE":285.8613,"ARG_OF_PERICENTER":86.0417,"MEAN_ANOMALY":274.0919,"EPHEMERIS_TYPE":0,"CLASSIFICATION_TYPE":"U","NORAD_CAT_ID":54675,"ELEMENT_SET_NO":999,"REV_AT_EPOCH":14368,"BSTAR":4.6879648e-5,"MEAN_MOTION_DOT":3.2e-7,"MEAN_MOTION_DDOT":0},{"OBJECT_NAME":"ONEWEB-0615","OBJECT_ID":"2022-166AL","EPOCH":"2025-11-19T06:28:06.561696","MEAN_MOTION":13.21823909,"ECCENTRICITY":0.0001853,"INCLINATION":87.9188,"RA_OF_ASC_NODE":285.8618,"ARG_OF_PERICENTER":83.835,"MEAN_ANOMALY":276.2995,"EPHEMERIS_TYPE":0,"CLASSIFICATION_TYPE":"U","NORAD_CAT_ID":54676,"ELEMENT_SET_NO":999,"REV_AT_EPOCH":14371,"BSTAR":-6.3525073e-5,"MEAN_MOTION_DOT":-1.3e-7,"MEAN_MOTION_DDOT":0},{"OBJECT_NAME":"ONEWEB-0655","OBJECT_ID":"2022-166AM","EPOCH":"2025-11-18T22:36:32.520384","MEAN_MOTION":13.21822308,"ECCENTRICITY":0.00019491,"INCLINATION":87.9186,"RA_OF_ASC_NODE":285.9318,"ARG_OF_PERICENTER":91.9271,"MEAN_ANOMALY":268.2086,"EPHEMERIS_TYPE":0,"CLASSIFICATION_TYPE":"U","NORAD_CAT_ID":54677,"ELEMENT_SET_NO":999,"REV_AT_EPOCH":14366,"BSTAR":-0.00017154287,"MEAN_MOTION_DOT":-5.8e-7,"MEAN_MOTION_DDOT":0},{"OBJECT_NAME":"ONEWEB-0659","OBJECT_ID":"2022-166AN","EPOCH":"2025-11-19T06:16:15.303072","MEAN_MOTION":13.21828423,"ECCENTRICITY":0.00019061,"INCLINATION":87.9188,"RA_OF_ASC_NODE":285.868,"ARG_OF_PERICENTER":80.4854,"MEAN_ANOMALY":279.6495,"EPHEMERIS_TYPE":0,"CLASSIFICATION_TYPE":"U","NORAD_CAT_ID":54678,"ELEMENT_SET_NO":999,"REV_AT_EPOCH":14379,"BSTAR":0.00020373739,"MEAN_MOTION_DOT":9.7e-7,"MEAN_MOTION_DDOT":0},{"OBJECT_NAME":"ONEWEB-0685","OBJECT_ID":"2022-166AP","EPOCH":"2025-11-19T04:28:09.096960","MEAN_MOTION":13.218335,"ECCENTRICITY":0.00016761,"INCLINATION":87.9185,"RA_OF_ASC_NODE":285.8791,"ARG_OF_PERICENTER":89.7268,"MEAN_ANOMALY":270.4058,"EPHEMERIS_TYPE":0,"CLASSIFICATION_TYPE":"U","NORAD_CAT_ID":54679,"ELEMENT_SET_NO":999,"REV_AT_EPOCH":14367,"BSTAR":5.4692408e-5,"MEAN_MOTION_DOT":3.6e-7,"MEAN_MOTION_DDOT":0},{"OBJECT_NAME":"ONEWEB-0712","OBJECT_ID":"2022-166AQ","EPOCH":"2025-11-19T05:34:39.699552","MEAN_MOTION":13.16593051,"ECCENTRICITY":0.00022492,"INCLINATION":87.9022,"RA_OF_ASC_NODE":270.5817,"ARG_OF_PERICENTER":96.6135,"MEAN_ANOMALY":263.5252,"EPHEMERIS_TYPE":0,"CLASSIFICATION_TYPE":"U","NORAD_CAT_ID":54680,"ELEMENT_SET_NO":999,"REV_AT_EPOCH":14443,"BSTAR":0.00030289928,"MEAN_MOTION_DOT":1.29e-6,"MEAN_MOTION_DDOT":0},{"OBJECT_NAME":"ONEWEB-0714","OBJECT_ID":"2022-166AR","EPOCH":"2025-11-19T06:25:44.355936","MEAN_MOTION":13.21823306,"ECCENTRICITY":0.00018214,"INCLINATION":87.9189,"RA_OF_ASC_NODE":285.8567,"ARG_OF_PERICENTER":89.583,"MEAN_ANOMALY":270.5513,"EPHEMERIS_TYPE":0,"CLASSIFICATION_TYPE":"U","NORAD_CAT_ID":54681,"ELEMENT_SET_NO":999,"REV_AT_EPOCH":14380,"BSTAR":-8.3289521e-5,"MEAN_MOTION_DOT":-2.1e-7,"MEAN_MOTION_DDOT":0},{"OBJECT_NAME":"ONEWEB-0532","OBJECT_ID":"2023-004A","EPOCH":"2025-11-19T03:29:53.659680","MEAN_MOTION":13.17647034,"ECCENTRICITY":0.00013376,"INCLINATION":87.9139,"RA_OF_ASC_NODE":47.625,"ARG_OF_PERICENTER":98.9898,"MEAN_ANOMALY":261.1385,"EPHEMERIS_TYPE":0,"CLASSIFICATION_TYPE":"U","NORAD_CAT_ID":55140,"ELEMENT_SET_NO":999,"REV_AT_EPOCH":13992,"BSTAR":0.0001018981,"MEAN_MOTION_DOT":5.2e-7,"MEAN_MOTION_DDOT":0},{"OBJECT_NAME":"ONEWEB-0533","OBJECT_ID":"2023-004B","EPOCH":"2025-11-19T06:31:03.863136","MEAN_MOTION":13.12441262,"ECCENTRICITY":0.00017787,"INCLINATION":87.8972,"RA_OF_ASC_NODE":32.3661,"ARG_OF_PERICENTER":108.1915,"MEAN_ANOMALY":251.9407,"EPHEMERIS_TYPE":0,"CLASSIFICATION_TYPE":"U","NORAD_CAT_ID":55141,"ELEMENT_SET_NO":999,"REV_AT_EPOCH":14052,"BSTAR":0.00098582272,"MEAN_MOTION_DOT":3.67e-6,"MEAN_MOTION_DDOT":0},{"OBJECT_NAME":"ONEWEB-0541","OBJECT_ID":"2023-004C","EPOCH":"2025-11-19T06:57:25.640640","MEAN_MOTION":13.1141454,"ECCENTRICITY":0.00015799,"INCLINATION":87.8868,"RA_OF_ASC_NODE":62.8454,"ARG_OF_PERICENTER":98.2664,"MEAN_ANOMALY":261.8643,"EPHEMERIS_TYPE":0,"CLASSIFICATION_TYPE":"U","NORAD_CAT_ID":55142,"ELEMENT_SET_NO":999,"REV_AT_EPOCH":13843,"BSTAR":0.00011399591,"MEAN_MOTION_DOT":5.3e-7,"MEAN_MOTION_DDOT":0},{"OBJECT_NAME":"ONEWEB-0543","OBJECT_ID":"2023-004D","EPOCH":"2025-11-19T03:18:13.321152","MEAN_MOTION":13.18688581,"ECCENTRICITY":0.00020586,"INCLINATION":87.919,"RA_OF_ASC_NODE":17.2196,"ARG_OF_PERICENTER":102.7323,"MEAN_ANOMALY":257.4039,"EPHEMERIS_TYPE":0,"CLASSIFICATION_TYPE":"U","NORAD_CAT_ID":55143,"ELEMENT_SET_NO":999,"REV_AT_EPOCH":14201,"BSTAR":0.00015939457,"MEAN_MOTION_DOT":7.6e-7,"MEAN_MOTION_DDOT":0},{"OBJECT_NAME":"ONEWEB-0544","OBJECT_ID":"2023-004E","EPOCH":"2025-11-19T04:58:00.747840","MEAN_MOTION":13.18689844,"ECCENTRICITY":0.00020219,"INCLINATION":87.9192,"RA_OF_ASC_NODE":17.1952,"ARG_OF_PERICENTER":94.7611,"MEAN_ANOMALY":265.3752,"EPHEMERIS_TYPE":0,"CLASSIFICATION_TYPE":"U","NORAD_CAT_ID":55144,"ELEMENT_SET_NO":999,"REV_AT_EPOCH":14202,"BSTAR":-4.5415579e-5,"MEAN_MOTION_DOT":-5.0e-8,"MEAN_MOTION_DDOT":0},{"OBJECT_NAME":"ONEWEB-0560","OBJECT_ID":"2023-004F","EPOCH":"2025-11-19T04:48:28.837728","MEAN_MOTION":13.1868876,"ECCENTRICITY":0.00021069,"INCLINATION":87.92,"RA_OF_ASC_NODE":17.1822,"ARG_OF_PERICENTER":95.6105,"MEAN_ANOMALY":264.5268,"EPHEMERIS_TYPE":0,"CLASSIFICATION_TYPE":"U","NORAD_CAT_ID":55145,"ELEMENT_SET_NO":999,"REV_AT_EPOCH":14203,"BSTAR":0.0001561635,"MEAN_MOTION_DOT":7.4e-7,"MEAN_MOTION_DDOT":0},{"OBJECT_NAME":"ONEWEB-0565","OBJECT_ID":"2023-004G","EPOCH":"2025-11-19T04:38:58.735104","MEAN_MOTION":13.18685958,"ECCENTRICITY":0.00019043,"INCLINATION":87.9192,"RA_OF_ASC_NODE":17.2322,"ARG_OF_PERICENTER":82.254,"MEAN_ANOMALY":277.8808,"EPHEMERIS_TYPE":0,"CLASSIFICATION_TYPE":"U","NORAD_CAT_ID":55146,"ELEMENT_SET_NO":999,"REV_AT_EPOCH":14202,"BSTAR":-0.0005634207,"MEAN_MOTION_DOT":-2.09e-6,"MEAN_MOTION_DDOT":0},{"OBJECT_NAME":"ONEWEB-0567","OBJECT_ID":"2023-004H","EPOCH":"2025-11-19T04:29:28.751712","MEAN_MOTION":13.18685776,"ECCENTRICITY":0.00020357,"INCLINATION":87.9199,"RA_OF_ASC_NODE":17.1983,"ARG_OF_PERICENTER":87.827,"MEAN_ANOMALY":272.3095,"EPHEMERIS_TYPE":0,"CLASSIFICATION_TYPE":"U","NORAD_CAT_ID":55147,"ELEMENT_SET_NO":999,"REV_AT_EPOCH":14202,"BSTAR":-0.00037878384,"MEAN_MOTION_DOT":-1.36e-6,"MEAN_MOTION_DDOT":0},{"OBJECT_NAME":"ONEWEB-0569","OBJECT_ID":"2023-004J","EPOCH":"2025-11-19T03:19:56.840448","MEAN_MOTION":13.13468862,"ECCENTRICITY":0.0002628,"INCLINATION":87.9011,"RA_OF_ASC_NODE":1.9565,"ARG_OF_PERICENTER":83.295,"MEAN_ANOMALY":276.8479,"EPHEMERIS_TYPE":0,"CLASSIFICATION_TYPE":"U","NORAD_CAT_ID":55148,"ELEMENT_SET_NO":999,"REV_AT_EPOCH":14260,"BSTAR":-0.00078810082,"MEAN_MOTION_DOT":-2.75e-6,"MEAN_MOTION_DDOT":0}]
